0 DMSP 5D-2 F11 DEB
1 29069U 91082BQ  19200.45084855 +.00000743 +00000-0 +36261-3 0  9992
2 29069 098.9571 180.3523 0089414 106.9584 046.6760 14.19023282756861
0 DMSP 5D-2 F11 DEB
1 29071U 91082BS  19200.72800714 +.00000725 +00000-0 +37927-3 0  9995
2 29071 098.9901 182.7810 0092929 226.6573 132.6829 14.15353469772903
0 DMSP 5D-2 F11 DEB
1 29075U 91082BW  19200.77671281 +.00024540 +00000-0 +82575-3 0  9999
2 29075 098.5837 053.6156 0010214 028.0077 332.1708 15.30749590744140
0 DMSP 5D-2 F11 DEB
1 29075U 91082BW  19200.77671281  .00024540  00000-0  82575-3 0  9999
2 29075  98.5837  53.6156 0010214  28.0077 332.1708 15.30749590744195
0 EROS B
1 29079U 06014A   19201.16882008  .00000819  00000-0  36788-4 0  9998
2 29079  97.4243 319.6823 0004074  43.6487  76.4329 15.23946997734490
0 EROS B
1 29079U 06014A   19201.82489900  .00000843  00000-0  37803-4 0  9991
2 29079  97.4243 320.3318 0004027  41.2772  75.8868 15.23948360734595
0 EROS B
1 29079U 06014A   19201.48799970  .00000864  00000-0  38648-4 0  9995
2 29079  97.4243 319.9983 0004038  42.4460  27.6017 15.23947894734543
0 DMSP 5D-2 F11 DEB
1 29081U 91082CA  19200.68118248 +.00006353 +00000-0 +69021-3 0  9998
2 29081 098.6218 287.1478 0030560 238.3328 121.4904 14.88170561787853
0 DMSP 5D-2 F11 DEB
1 29081U 91082CA  19201.21907898  .00006127  00000-0  66584-3 0  9995
2 29081  98.6214 287.7325 0030585 236.5600 123.2689 14.88176804788921
0 DMSP 5D-2 F11 DEB
1 29082U 91082CB  19201.26336796  .00001598  00000-0  31989-3 0  9992
2 29082  98.6461 305.9250 0015068  98.3258 261.9652 14.63221544772779
0 DMSP 5D-2 F11 DEB
1 29086U 91082CF  19200.40888980 +.00001512 +00000-0 +39285-3 0  9991
2 29086 098.6433 275.5244 0012000 180.5002 242.5018 14.51144897743738
0 DMSP 5D-2 F11 DEB
1 29088U 91082CH  19201.08557876  .00000956  00000-0  33498-3 0  9996
2 29088  98.6569 242.6762 0010667 353.3192   6.7850 14.37387464778899
0 DMSP 5D-2 F11 DEB
1 29089U 91082CJ  19201.41192910  .00005329  00000-0  59442-3 0  9994
2 29089  98.6009 359.6469 0005564 264.7269 157.0176 14.87501877795725
0 YAOGAN 1
1 29092U 06015A   19201.88991648  .00000024  00000-0  95254-5 0  9996
2 29092  97.9672 222.7622 0001478  91.8325 268.3057 14.83000988715549
0 CZ-4B R/B
1 29093U 06015B   19200.90347675 +.00001607 +00000-0 +34825-4 0  9998
2 29093 097.5817 346.8586 0058172 087.6900 273.1007 15.44325789734984
0 SL-16 DEB
1 29097U 93016AL  19201.53236319 -.00000007  00000-0  27452-4 0  9993
2 29097  71.0042 253.8141 0127291 351.7017  75.8478 13.93733929924051
0 SL-16 DEB
1 29098U 93016AM  19200.04172517 -.00000278 +00000-0 -12281-3 0  9992
2 29098 070.9007 080.3190 0085465 035.7259 028.9955 14.11491287313949
0 SL-16 DEB
1 29098U 93016AM  19201.03412361 -.00000274  00000-0 -12065-3 0  9992
2 29098  70.9005  78.2361 0085524  34.2507  31.7302 14.11490883887045
0 SL-16 DEB *
1 29101U 93016AQ  19201.21522812  .00001117  00000-0  39818-3 0  9990
2 29101  70.9289  39.9180 0120686 174.9570 185.2810 14.32436274854396
0 SL-16 DEB *
1 29102U 93016AR  19201.55702016  .00001369  00000-0  49700-3 0  9994
2 29102  70.9336 161.3911 0110178 298.9104  60.1010 14.31790930866619
0 CLOUDSAT
1 29107U 06016A   19201.83422979  .00000041  00000-0  17468-4 0  9994
2 29107  98.1890 146.0639 0001939  30.7009 329.4305 14.62324662703884
0 CLOUDSAT
1 29107U 06016A   19200.87628051 +.00000027 +00000-0 +14661-4 0  9992
2 29107 098.1890 145.1141 0001996 032.4414 327.6910 14.62324462703570
0 CALIPSO
1 29108U 06016B   19200.87595244 +.00000054 +00000-0 +20024-4 0  9990
2 29108 098.1885 144.9354 0001543 083.6630 276.4747 14.62321584703564
0 CALIPSO
1 29108U 06016B   19201.83390387  .00000045  00000-0  18296-4 0  9996
2 29108  98.1885 145.8851 0001548  83.5020 276.6358 14.62321725703728
0 SL-14 DEB
1 29126U 85108Q   19201.85617437  .00006802  00000-0  15097-3 0  9997
2 29126  82.5644  42.4438 0002737 296.6858  63.4109 15.43504239722582
0 TRANSIT 14 DEB
1 29138U 66076J   19201.07103105  .00003482  00000-0  22865-2 0  9990
2 29138  88.8111 325.3702 0010791 218.7283 200.2287 14.01719440675339
0 TRANSIT 14 DEB
1 29138U 66076J   19200.80413142 +.00003441 +00000-0 +22591-2 0  9996
2 29138 088.8112 325.4051 0010623 219.1797 293.7924 14.01717571675166
0 THOR BURNER 2A DEB
1 29139U 74015F   19201.90661175  .00000062  00000-0  42249-4 0  9992
2 29139  99.0436  82.5855 0064420 317.8759 103.7686 14.29423232719219
0 GOES 13
1 29155U 06018A   19201.42965984 -.00000201  00000-0  00000+0 0  9990
2 29155   0.1280 286.8310 0006275 316.3438 129.5411  0.99977188 48217
0 GOES 13
1 29155U 06018A   19200.64007563 -.00000207 +00000-0 +00000-0 0  9990
2 29155 000.1297 286.7828 0006214 316.4634 205.2787 00.99977405018060
0 DELTA 4 R/B
1 29156U 06018B   19200.55530243 -.00000011 +00000-0 +00000-0 0  9990
2 29156 011.6703 202.3655 5197770 186.1148 204.0977 01.93075279092778
0 EUTE 113 WEST A(SATMEX 6
1 29162U 06020A   19200.66033446 -.00000044 +00000-0 +00000-0 0  9991
2 29162 000.0257 257.4841 0002979 223.4363 300.9417 01.00271601048157
0 EUTE 113 WEST A(SATMEX 6
1 29162U 06020A   19201.19992012 -.00000044  00000-0  00000+0 0  9992
2 29162   0.0228 256.9467 0002981 224.6179 135.0794  1.00271661 48155
0 THAICOM 5
1 29163U 06020B   19201.48813260 -.00000127  00000-0  00000+0 0  9994
2 29163   0.0059 112.1387 0002794  37.3999  42.6312  1.00273082 48229
0 THAICOM 5
1 29163U 06020B   19200.84205983 -.00000129 +00000-0 +00000-0 0  9993
2 29163 000.0166 227.7524 0002778 280.0735 171.1179 01.00273182048186
0 ARIANE 5 DEB (SYLDA)
1 29164U 06020C   19199.99053672 +.00009811 +00000-0 +12881-2 0  9991
2 29164 006.8251 020.1081 4803583 092.5672 321.1549 05.96507168212074
0 ARIANE 5 DEB (SYLDA)
1 29164U 06020C   19201.49781617  .00008883  00000-0  11664-2 0  9993
2 29164   6.8260  17.9220 4803269  96.8957 317.9868  5.96532909212198
0 ARIANE 5 R/B
1 29165U 06020D   19200.85423117  .00018721  75668-6  59542-3 0  9999
2 29165   7.0288 357.8828 6432744 163.2184 236.5202  3.47572000132842
0 ARIANE 5 R/B
1 29165U 06020D   19200.56747989 +.00018579 +73633-6 +59289-3 0  9992
2 29165 007.0290 358.0842 6432753 162.8195 237.7263 03.47562243132850
0 ARIANE 5 R/B
1 29165U 06020D   19201.42767951  .00018200  77996-6  57674-3 0  9992
2 29165   7.0287 357.4789 6432679 164.0197 234.0708  3.47592388132860
0 ARIANE 5 R/B
1 29165U 06020D   19201.71438196  .00017341  78239-6  54968-3 0  9999
2 29165   7.0286 357.2772 6432624 164.4198 232.8348  3.47602655132870
0 SCOUT B DEB
1 29168U 65063S   19200.62298910 +.00004392 +00000-0 +12666-1 0  9995
2 29168 069.2385 181.3562 0852414 206.6112 275.0259 12.22900808317653
0 DELTA 1 DEB
1 29187U 68002L   19200.47404029 -.00000197 +00000-0 -37561-3 0  9999
2 29187 105.7971 313.2860 0300822 051.9162 015.8802 12.90344521276360
0 DELTA 1 DEB
1 29187U 68002L   19201.48104462 -.00000199  00000-0 -38245-3 0  9991
2 29187 105.7973 314.7145 0300827  50.2609  13.6579 12.90344195680854
0 COSMOS 860 COOLANT
1 29194U 76103G   19201.35410971  .00000057  00000-0  10907-3 0  9997
2 29194  64.6859 183.8700 0034738 149.3048 280.2690 13.96247359818874
0 COSMOS 860 COOLANT
1 29194U 76103G   19200.35104375 +.00000055 +00000-0 +10727-3 0  9992
2 29194 064.6858 186.5521 0034822 149.7058 278.2419 13.96247043818587
0 COSMOS 860 COOLANT
1 29196U 76103J   19201.44288375 -.00000028  00000-0  54726-4 0  9997
2 29196  64.6980 156.3486 0047501 161.7467 299.0402 13.86133133827717
0 ATLAS F DEB
1 29197U 78047C   19200.84640341 +.00002233 +00000-0 +27086-2 0  9991
2 29197 063.8903 032.7972 2819144 114.8751 349.2591 09.09504568509121
0 METEOR 2-6 DEB
1 29200U 80073F   19201.52150536  .00000891  00000-0  28550-3 0  9992
2 29200  81.2071 286.6448 0044141 133.0737 227.4158 14.38241846694290
0 SCOUT G-1 DEB
1 29211U 87080P   19200.25574095 +.00000813 +00000-0 +60555-3 0  9993
2 29211 090.3312 023.5331 0095045 062.2367 298.8405 13.92077353146097
0 RESURS DK-1
1 29228U 06021A   19200.80899266 +.00000001 +00000-0 +74737-5 0  9996
2 29228 069.9366 317.3091 0007641 259.9982 100.0316 15.02450440722636
0 RESURS DK-1
1 29228U 06021A   19201.47476057 -.00000003  00000-0  72031-5 0  9997
2 29228  69.9365 315.6145 0007634 259.3532 100.6769 15.02450549722732
0 KAZSAT 1
1 29230U 06022A   19200.79582480 +.00000015 +00000-0 +00000-0 0  9997
2 29230 007.5117 052.0134 0001316 120.8318 257.8520 00.99234053047597
0 KAZSAT 1
1 29230U 06022A   19201.80015663 -.00000002  00000-0  00000+0 0  9990
2 29230   7.5133  52.0077 0001335 120.8055 256.6796  0.99234482 47587
0 SL-12 R/B(2)
1 29233U 06022D   19200.90649052 -.00000213 +00000-0 +00000-0 0  9993
2 29233 009.4890 039.2876 0052992 338.7771 019.2301 01.01004666048269
0 GALAXY 16
1 29236U 06023A   19201.73452096 -.00000132  00000-0  00000+0 0  9998
2 29236   0.0176  63.2424 0002884  66.2325 334.1400  1.00273466 47965
0 BLOCK DM-SL R/B
1 29237U 06023B   19200.83700014 -.00000155 +00000-0 +00000-0 0  9991
2 29237 001.0080 021.6852 6622259 118.6668 082.8114 02.15890990103153
0 DELTA 4 R/B
1 29250U 06027B   19200.05677356 +.00000153 +00000-0 +00000-0 0  9993
2 29250 064.2749 191.0374 6007336 272.1708 024.4859 02.17602900002831
0 DELTA 4 R/B
1 29250U 06027B   19200.97587153  .00000160  00000-0  00000+0 0  9996
2 29250  64.2749 190.9570 6007287 272.1594  24.4927  2.17602920  2833
0 GENESIS 1
1 29252U 06029A   19200.85379620 +.00000278 +00000-0 +23741-4 0  9997
2 29252 064.5121 312.5139 0045654 232.1776 127.5211 15.17773566717469
0 BREEZE-M R/B
1 29254U 06032B   19200.80856125 -.00000361 +00000-0 +00000-0 0  9991
2 29254 012.4337 141.7041 6049102 213.3870 075.5608 02.06441637097176
